     2              NAVIGATION DATA                         RINEX VERSION / TYPE
CCRINEXN V1.6.0 UX  CDDIS               28-FEB-22 03:53     PGM / RUN BY / DATE 
IGS BROADCAST EPHEMERIS FILE                                COMMENT             
    0.1397D-07  0.0000D+00 -0.5960D-07  0.5960D-07          ION ALPHA           
    0.1106D+06 -0.3277D+05 -0.2621D+06  0.1966D+06          ION BETA            
    0.279396772385D-08 0.444089209850D-14   319488     2199 DELTA-UTC: A0,A1,T,W
    18                                                      LEAP SECONDS        
                                                            END OF HEADER       
 1 22  2 28  0  0  0.0 0.420762691647D-03-0.932232069317D-11 0.000000000000D+00
    0.360000000000D+02 0.555625000000D+02 0.431625121776D-08 0.145124662040D+01
    0.282190740108D-05 0.114560375223D-01 0.166893005371D-05 0.515366823196D+04
    0.864000000000D+05-0.223517417908D-06-0.216049343752D+01 0.132247805595D-06
    0.986873245472D+00 0.363593750000D+03 0.883538261201D+00-0.833891877801D-08
    0.992898501065D-10 0.100000000000D+01 0.219900000000D+04 0.000000000000D+00
    0.200000000000D+01 0.000000000000D+00 0.512227416039D-08 0.360000000000D+02
    0.792180000000D+05 0.400000000000D+01 0.000000000000D+00 0.000000000000D+00
 2 22  2 28  0  0  0.0-0.651587732136D-03-0.568434188608D-12 0.000000000000D+00
    0.390000000000D+02 0.517187500000D+02 0.466983737461D-08 0.159115860454D+01
    0.215135514736D-05 0.206314686220D-01 0.103935599327D-05 0.515369755173D+04
    0.864000000000D+05 0.266358256340D-06-0.225003219876D+01-0.499188899994D-06
    0.965218007079D+00 0.357281250000D+03-0.143737973988D+01-0.833784730481D-08
    0.122147945095D-09 0.100000000000D+01 0.219900000000D+04 0.000000000000D+00
    0.200000000000D+01 0.000000000000D+00-0.176951289177D-07 0.390000000000D+02
    0.821160000000D+05 0.400000000000D+01 0.000000000000D+00 0.000000000000D+00
 3 22  2 28  0  0  0.0-0.141325872392D-03-0.175077730091D-10 0.000000000000D+00
    0.390000000000D+02-0.128593750000D+03 0.423731935850D-08 0.302776806246D+00
   -0.672042369842D-05 0.389773503412D-02 0.538490712643D-05 0.515367776299D+04
    0.864000000000D+05-0.465661287308D-07-0.112508851675D+01 0.596046447754D-07
    0.972568784216D+00 0.280906250000D+03 0.954188975515D+00-0.812640992616D-08
   -0.334656796942D-09 0.100000000000D+01 0.219900000000D+04 0.000000000000D+00
    0.200000000000D+01 0.000000000000D+00 0.186264514923D-08 0.390000000000D+02
    0.792180000000D+05 0.400000000000D+01 0.000000000000D+00 0.000000000000D+00
 4 22  2 28  0  0  0.0-0.186887104064D-03 0.238742359215D-11 0.000000000000D+00
    0.170000000000D+02-0.338750000000D+02 0.417303096635D-08-0.306854012330D+01
   -0.173784792423D-05 0.172719510738D-02 0.115912407637D-04 0.515365531731D+04
    0.864000000000D+05 0.167638063431D-07-0.439247590140D-01-0.465661287308D-07
    0.961631752645D+00 0.157406250000D+03-0.303878359861D+01-0.771853579371D-08
    0.443947063606D-09 0.100000000000D+01 0.219900000000D+04 0.000000000000D+00
    0.200000000000D+01 0.000000000000D+00-0.419095158577D-08 0.785000000000D+03
    0.793020000000D+05 0.400000000000D+01 0.000000000000D+00 0.000000000000D+00
 5 22  2 28  0  0  0.0-0.729514285922D-04-0.136424205266D-11 0.000000000000D+00
    0.810000000000D+02-0.146375000000D+03 0.442375569575D-08-0.217608423679D+01
   -0.753626227379D-05 0.585916126147D-02 0.562705099583D-05 0.515368021584D+04
    0.864000000000D+05 0.521540641785D-07-0.116566659904D+01-0.186264514923D-07
    0.959546150800D+00 0.268875000000D+03 0.100919817997D+01-0.812140971789D-08
   -0.315013121561D-09 0.100000000000D+01 0.219900000000D+04 0.000000000000D+00
    0.200000000000D+01 0.000000000000D+00-0.111758708954D-07 0.810000000000D+02
    0.832380000000D+05 0.400000000000D+01 0.000000000000D+00 0.000000000000D+00
 6 22  2 28  0  0  0.0 0.215345527977D-03 0.122781784739D-10 0.000000000000D+00
    0.740000000000D+02 0.404375000000D+02 0.424624830186D-08 0.176258974241D+01
    0.218115746975D-05 0.268953142222D-02 0.840052962303D-06 0.515367545700D+04
    0.864000000000D+05 0.540167093277D-07-0.216876511135D+01-0.577419996262D-07
    0.986249966298D+00 0.371093750000D+03-0.939934348564D+00-0.820248452355D-08
    0.321441960777D-10 0.100000000000D+01 0.219900000000D+04 0.000000000000D+00
    0.200000000000D+01 0.000000000000D+00 0.372529029846D-08 0.740000000000D+02
    0.792180000000D+05 0.400000000000D+01 0.000000000000D+00 0.000000000000D+00
 8 22  2 28  0  0  0.0-0.578928738832D-04-0.147792889038D-11 0.000000000000D+00
    0.122000000000D+03 0.104593750000D+03 0.423981946264D-08-0.258176028692D+01
    0.537559390068D-05 0.734995875973D-02 0.110547989607D-04 0.515373087883D+04
    0.864000000000D+05-0.154599547386D-06 0.304299988358D+01-0.104308128357D-06
    0.964908226861D+00 0.171125000000D+03 0.115277053729D+00-0.776353766822D-08
    0.500020827875D-11 0.100000000000D+01 0.219900000000D+04 0.000000000000D+00
    0.280000000000D+01 0.000000000000D+00 0.512227416039D-08 0.122000000000D+03
    0.792180000000D+05 0.400000000000D+01 0.000000000000D+00 0.000000000000D+00
 9 22  2 28  0  0  0.0-0.352215021849D-03 0.181898940355D-11 0.000000000000D+00
    0.370000000000D+02-0.405937500000D+02 0.434446667876D-08-0.220536627717D+01
   -0.216439366341D-05 0.221303524450D-02 0.118799507618D-04 0.515362058830D+04
    0.864000000000D+05 0.540167093277D-07-0.969569086787D-01 0.931322574616D-08
    0.954630127240D+00 0.147875000000D+03 0.187941695534D+01-0.781246827780D-08
    0.346443002170D-09 0.100000000000D+01 0.219900000000D+04 0.000000000000D+00
    0.200000000000D+01 0.000000000000D+00 0.139698386192D-08 0.370000000000D+02
    0.792180000000D+05 0.400000000000D+01 0.000000000000D+00 0.000000000000D+00
10 22  2 28  0  0  0.0-0.332649797201D-03-0.109139364213D-10 0.000000000000D+00
    0.900000000000D+01-0.144937500000D+03 0.425374861427D-08-0.586745064927D+00
   -0.761821866035D-05 0.754108675756D-02 0.533834099770D-05 0.515368416977D+04
    0.864000000000D+05 0.108033418655D-06-0.112787208413D+01 0.143423676491D-06
    0.972391430269D+00 0.282312500000D+03-0.250746639164D+01-0.821034199370D-08
   -0.422160441820D-09 0.100000000000D+01 0.219900000000D+04 0.000000000000D+00
    0.200000000000D+01 0.000000000000D+00 0.232830643654D-08 0.900000000000D+01
    0.830160000000D+05 0.400000000000D+01 0.000000000000D+00 0.000000000000D+00
11 22  2 28  0  0  0.0-0.758636742830D-04 0.106865627458D-10 0.000000000000D+00
    0.199000000000D+03 0.289687500000D+02 0.480055710533D-08-0.265805928112D+01
    0.146776437759D-05 0.276893028058D-03 0.718981027603D-06 0.515377429199D+04
    0.864000000000D+05-0.149011611938D-07-0.211700899929D+01-0.558793544769D-07
    0.961970118282D+00 0.365062500000D+03 0.280788924566D+01-0.850785438629D-08
    0.503592405216D-10 0.100000000000D+01 0.219900000000D+04 0.000000000000D+00
    0.128000000000D+03 0.630000000000D+02-0.884756445885D-08 0.199000000000D+03
    0.810960000000D+05 0.400000000000D+01 0.000000000000D+00 0.000000000000D+00
12 22  2 28  0  0  0.0-0.177535228431D-03-0.568434188608D-11 0.000000000000D+00
    0.670000000000D+02 0.531250000000D+01 0.445804283824D-08 0.135134665701D+00
    0.521540641785D-07 0.870540307369D-02 0.928342342377D-05 0.515359006119D+04
    0.864000000000D+05-0.521540641785D-07 0.208782755502D+01 0.353902578354D-07
    0.969952090444D+00 0.209718750000D+03 0.125001127109D+01-0.798033241288D-08
   -0.572881005651D-09 0.100000000000D+01 0.219900000000D+04 0.000000000000D+00
    0.200000000000D+01 0.000000000000D+00-0.125728547573D-07 0.670000000000D+02
    0.793390000000D+05 0.400000000000D+01 0.000000000000D+00 0.000000000000D+00
14 22  2 28  0  0  0.0-0.888011418283D-04-0.420641299570D-11 0.000000000000D+00
    0.560000000000D+02-0.990625000000D+01 0.476591280511D-08 0.191085493466D+00
   -0.502914190292D-06 0.147892371751D-02 0.861659646034D-05 0.515364988899D+04
    0.864000000000D+05 0.372529029846D-08 0.205632742215D+01 0.614672899246D-07
    0.953342321917D+00 0.210156250000D+03 0.302624425627D+01-0.807140763510D-08
   -0.530022077547D-09 0.100000000000D+01 0.219900000000D+04 0.000000000000D+00
    0.200000000000D+01 0.000000000000D+00-0.745058059692D-08 0.312000000000D+03
    0.792180000000D+05 0.400000000000D+01 0.000000000000D+00 0.000000000000D+00
15 22  2 28  0  0  0.0-0.805249437690D-04 0.284217094304D-11 0.000000000000D+00
    0.730000000000D+02-0.663750000000D+02 0.476198407004D-08 0.271378567970D+01
   -0.341609120369D-05 0.139287889469D-01 0.122841447592D-04 0.515375048256D+04
    0.864000000000D+05 0.800937414169D-07-0.203285238389D+00-0.856816768646D-07
    0.930468614667D+00 0.123968750000D+03 0.107739831778D+01-0.779282460242D-08
    0.410017078857D-09 0.100000000000D+01 0.219900000000D+04 0.000000000000D+00
    0.200000000000D+01 0.000000000000D+00-0.107102096081D-07 0.730000000000D+02
    0.792530000000D+05 0.400000000000D+01 0.000000000000D+00 0.000000000000D+00
16 22  2 28  0  0  0.0-0.474858097732D-03-0.466116034659D-11 0.000000000000D+00
    0.940000000000D+02-0.762500000000D+01 0.436411035414D-08-0.171987815795D+01
   -0.575557351112D-06 0.127862333320D-01 0.900216400623D-05 0.515360746956D+04
    0.864000000000D+05 0.119209289551D-06 0.210644141744D+01-0.135973095894D-06
    0.969904754803D+00 0.203500000000D+03 0.711169912179D+00-0.774139388870D-08
   -0.447875798682D-09 0.100000000000D+01 0.219900000000D+04 0.000000000000D+00
    0.200000000000D+01 0.000000000000D+00-0.102445483208D-07 0.940000000000D+02
    0.792180000000D+05 0.400000000000D+01 0.000000000000D+00 0.000000000000D+00
